ARIANE 40 R/B           
1 20443U 90005H   25325.19573252  .00000390  00000+0  13794-3 0  9996
2 20443  98.3274  23.9798 0010480 165.4328 194.7164 14.39775215877196
DELTA 2 R/B(1)          
1 20453U 90008B   25325.54397566  .00037993  00000+0  64352-3 0  9996
2 20453  35.6046 157.1876 0115692 344.6744  15.0499 15.43245046909359
COSMOS 2058             
1 20465U 90010A   25325.49085044  .00003686  00000+0  22365-3 0  9991
2 20465  82.4628 153.9356 0010084 356.7685   3.3478 15.10214273925900
SL-14 R/B               
1 20466U 90010B   25325.56558750  .00000478  00000+0  55163-4 0  9998
2 20466  82.5037   8.9331 0018433 298.3182  61.6173 14.83443564912458
SL-14 R/B               
1 20511U 90018B   25325.47947470  .00000498  00000+0  59637-4 0  9990
2 20511  82.5198 324.2386 0017976  88.5125 271.8149 14.82015893906559
HST                     
1 20580U 90037B   25325.36689227  .00008503  00000+0  29773-3 0  9990
2 20580  28.4694  57.9121 0001718  15.6514 344.4134 15.27634444756724
SL-16 R/B               
1 20625U 90046B   25325.60881336  .00000077  00000+0  64128-4 0  9994
2 20625  70.9958 164.8984 0012282 112.5011 247.7413 14.14990264833104
COSMOS 2084             
1 20663U 90055A   25325.50439257  .00002665  00000+0  19959-3 0  9992
2 20663  62.7910 344.3396 0035095 172.1466 188.0191 15.04834196920038
SL-6 R/B(2)             
1 20666U 90055D   25325.21112538  .00002925  00000+0  23095-3 0  9998
2 20666  62.7836 262.5564 0011109 290.7162  69.2746 15.02932070921884
SL-8 R/B                
1 20775U 90078B   25325.57799803  .00021966  00000+0  67911-3 0  9990
2 20775  82.9050 348.2328 0378681  16.8618 344.4785 14.84687202793231
SL-8 R/B                
1 21088U 91006B   25325.33446556  .00000111  00000+0  96536-4 0  9993
2 21088  82.9424 250.6336 0022191 342.3670 136.0090 13.77486269749153
OKEAN-3                 
1 21397U 91039A   25325.39236501  .00004173  00000+0  30030-3 0  9993
2 21397  82.5165  81.7039 0014138 345.0829  14.9978 15.03910417848758
