CCSDS_OMM_VERS = 2.0
CREATION_DATE  = 
ORIGINATOR     = 

OBJECT_NAME    = ARIANE 40 R/B
OBJECT_ID      = 1990-005H
CENTER_NAME    = EARTH
REF_FRAME      = TEME
TIME_SYSTEM    = UTC
MEAN_ELEMENT_THEORY = SGP/SGP4

EPOCH          = 2025-11-21T04:41:51.289728
MEAN_MOTION    = 14.39775215
ECCENTRICITY   = .001048
INCLINATION    = 98.3274
RA_OF_ASC_NODE = 23.9798
ARG_OF_PERICENTER = 165.4328
MEAN_ANOMALY   = 194.7164

EPHEMERIS_TYPE = 0
CLASSIFICATION_TYPE = U
NORAD_CAT_ID   = 20443
ELEMENT_SET_NO = 999
REV_AT_EPOCH   = 87719
BSTAR          = .13794E-3
MEAN_MOTION_DOT = .39E-5
MEAN_MOTION_DDOT = 0

CCSDS_OMM_VERS = 2.0
CREATION_DATE  = 
ORIGINATOR     = 

OBJECT_NAME    = DELTA 2 R/B(1)
OBJECT_ID      = 1990-008B
CENTER_NAME    = EARTH
REF_FRAME      = TEME
TIME_SYSTEM    = UTC
MEAN_ELEMENT_THEORY = SGP/SGP4

EPOCH          = 2025-11-21T13:03:19.497024
MEAN_MOTION    = 15.43245046
ECCENTRICITY   = .0115692
INCLINATION    = 35.6046
RA_OF_ASC_NODE = 157.1876
ARG_OF_PERICENTER = 344.6744
MEAN_ANOMALY   = 15.0499

EPHEMERIS_TYPE = 0
CLASSIFICATION_TYPE = U
NORAD_CAT_ID   = 20453
ELEMENT_SET_NO = 999
REV_AT_EPOCH   = 90935
BSTAR          = .64352E-3
MEAN_MOTION_DOT = .37993E-3
MEAN_MOTION_DDOT = 0

CCSDS_OMM_VERS = 2.0
CREATION_DATE  = 
ORIGINATOR     = 

OBJECT_NAME    = COSMOS 2058
OBJECT_ID      = 1990-010A
CENTER_NAME    = EARTH
REF_FRAME      = TEME
TIME_SYSTEM    = UTC
MEAN_ELEMENT_THEORY = SGP/SGP4

EPOCH          = 2025-11-21T11:46:49.478016
MEAN_MOTION    = 15.10214273
ECCENTRICITY   = .0010084
INCLINATION    = 82.4628
RA_OF_ASC_NODE = 153.9356
ARG_OF_PERICENTER = 356.7685
MEAN_ANOMALY   = 3.3478

EPHEMERIS_TYPE = 0
CLASSIFICATION_TYPE = U
NORAD_CAT_ID   = 20465
ELEMENT_SET_NO = 999
REV_AT_EPOCH   = 92590
BSTAR          = .22365E-3
MEAN_MOTION_DOT = .3686E-4
MEAN_MOTION_DDOT = 0

CCSDS_OMM_VERS = 2.0
CREATION_DATE  = 
ORIGINATOR     = 

OBJECT_NAME    = SL-14 R/B
OBJECT_ID      = 1990-010B
CENTER_NAME    = EARTH
REF_FRAME      = TEME
TIME_SYSTEM    = UTC
MEAN_ELEMENT_THEORY = SGP/SGP4

EPOCH          = 2025-11-21T13:34:26.760000
MEAN_MOTION    = 14.83443564
ECCENTRICITY   = .0018433
INCLINATION    = 82.5037
RA_OF_ASC_NODE = 8.9331
ARG_OF_PERICENTER = 298.3182
MEAN_ANOMALY   = 61.6173

EPHEMERIS_TYPE = 0
CLASSIFICATION_TYPE = U
NORAD_CAT_ID   = 20466
ELEMENT_SET_NO = 999
REV_AT_EPOCH   = 91245
BSTAR          = .55163E-4
MEAN_MOTION_DOT = .478E-5
MEAN_MOTION_DDOT = 0

CCSDS_OMM_VERS = 2.0
CREATION_DATE  = 
ORIGINATOR     = 

OBJECT_NAME    = SL-14 R/B
OBJECT_ID      = 1990-018B
CENTER_NAME    = EARTH
REF_FRAME      = TEME
TIME_SYSTEM    = UTC
MEAN_ELEMENT_THEORY = SGP/SGP4

EPOCH          = 2025-11-21T11:30:26.614080
MEAN_MOTION    = 14.82015893
ECCENTRICITY   = .0017976
INCLINATION    = 82.5198
RA_OF_ASC_NODE = 324.2386
ARG_OF_PERICENTER = 88.5125
MEAN_ANOMALY   = 271.8149

EPHEMERIS_TYPE = 0
CLASSIFICATION_TYPE = U
NORAD_CAT_ID   = 20511
ELEMENT_SET_NO = 999
REV_AT_EPOCH   = 90655
BSTAR          = .59637E-4
MEAN_MOTION_DOT = .498E-5
MEAN_MOTION_DDOT = 0

CCSDS_OMM_VERS = 2.0
CREATION_DATE  = 
ORIGINATOR     = 

OBJECT_NAME    = HST
OBJECT_ID      = 1990-037B
CENTER_NAME    = EARTH
REF_FRAME      = TEME
TIME_SYSTEM    = UTC
MEAN_ELEMENT_THEORY = SGP/SGP4

EPOCH          = 2025-11-21T08:48:19.492128
MEAN_MOTION    = 15.27634444
ECCENTRICITY   = .0001718
INCLINATION    = 28.4694
RA_OF_ASC_NODE = 57.9121
ARG_OF_PERICENTER = 15.6514
MEAN_ANOMALY   = 344.4134

EPHEMERIS_TYPE = 0
CLASSIFICATION_TYPE = U
NORAD_CAT_ID   = 20580
ELEMENT_SET_NO = 999
REV_AT_EPOCH   = 75672
BSTAR          = .29773E-3
MEAN_MOTION_DOT = .8503E-4
MEAN_MOTION_DDOT = 0

CCSDS_OMM_VERS = 2.0
CREATION_DATE  = 
ORIGINATOR     = 

OBJECT_NAME    = SL-16 R/B
OBJECT_ID      = 1990-046B
CENTER_NAME    = EARTH
REF_FRAME      = TEME
TIME_SYSTEM    = UTC
MEAN_ELEMENT_THEORY = SGP/SGP4

EPOCH          = 2025-11-21T14:36:41.474304
MEAN_MOTION    = 14.14990264
ECCENTRICITY   = .0012282
INCLINATION    = 70.9958
RA_OF_ASC_NODE = 164.8984
ARG_OF_PERICENTER = 112.5011
MEAN_ANOMALY   = 247.7413

EPHEMERIS_TYPE = 0
CLASSIFICATION_TYPE = U
NORAD_CAT_ID   = 20625
ELEMENT_SET_NO = 999
REV_AT_EPOCH   = 83310
BSTAR          = .64128E-4
MEAN_MOTION_DOT = .77E-6
MEAN_MOTION_DDOT = 0

CCSDS_OMM_VERS = 2.0
CREATION_DATE  = 
ORIGINATOR     = 

OBJECT_NAME    = COSMOS 2084
OBJECT_ID      = 1990-055A
CENTER_NAME    = EARTH
REF_FRAME      = TEME
TIME_SYSTEM    = UTC
MEAN_ELEMENT_THEORY = SGP/SGP4

EPOCH          = 2025-11-21T12:06:19.518048
MEAN_MOTION    = 15.04834196
ECCENTRICITY   = .0035095
INCLINATION    = 62.7910
RA_OF_ASC_NODE = 344.3396
ARG_OF_PERICENTER = 172.1466
MEAN_ANOMALY   = 188.0191

EPHEMERIS_TYPE = 0
CLASSIFICATION_TYPE = U
NORAD_CAT_ID   = 20663
ELEMENT_SET_NO = 999
REV_AT_EPOCH   = 92003
BSTAR          = .19959E-3
MEAN_MOTION_DOT = .2665E-4
MEAN_MOTION_DDOT = 0

CCSDS_OMM_VERS = 2.0
CREATION_DATE  = 
ORIGINATOR     = 

OBJECT_NAME    = SL-6 R/B(2)
OBJECT_ID      = 1990-055D
CENTER_NAME    = EARTH
REF_FRAME      = TEME
TIME_SYSTEM    = UTC
MEAN_ELEMENT_THEORY = SGP/SGP4

EPOCH          = 2025-11-21T05:04:01.232832
MEAN_MOTION    = 15.02932070
ECCENTRICITY   = .0011109
INCLINATION    = 62.7836
RA_OF_ASC_NODE = 262.5564
ARG_OF_PERICENTER = 290.7162
MEAN_ANOMALY   = 69.2746

EPHEMERIS_TYPE = 0
CLASSIFICATION_TYPE = U
NORAD_CAT_ID   = 20666
ELEMENT_SET_NO = 999
REV_AT_EPOCH   = 92188
BSTAR          = .23095E-3
MEAN_MOTION_DOT = .2925E-4
MEAN_MOTION_DDOT = 0

CCSDS_OMM_VERS = 2.0
CREATION_DATE  = 
ORIGINATOR     = 

OBJECT_NAME    = SL-8 R/B
OBJECT_ID      = 1990-078B
CENTER_NAME    = EARTH
REF_FRAME      = TEME
TIME_SYSTEM    = UTC
MEAN_ELEMENT_THEORY = SGP/SGP4

EPOCH          = 2025-11-21T13:52:19.029792
MEAN_MOTION    = 14.84687202
ECCENTRICITY   = .0378681
INCLINATION    = 82.9050
RA_OF_ASC_NODE = 348.2328
ARG_OF_PERICENTER = 16.8618
MEAN_ANOMALY   = 344.4785

EPHEMERIS_TYPE = 0
CLASSIFICATION_TYPE = U
NORAD_CAT_ID   = 20775
ELEMENT_SET_NO = 999
REV_AT_EPOCH   = 79323
BSTAR          = .67911E-3
MEAN_MOTION_DOT = .21966E-3
MEAN_MOTION_DDOT = 0

CCSDS_OMM_VERS = 2.0
CREATION_DATE  = 
ORIGINATOR     = 

OBJECT_NAME    = SL-8 R/B
OBJECT_ID      = 1991-006B
CENTER_NAME    = EARTH
REF_FRAME      = TEME
TIME_SYSTEM    = UTC
MEAN_ELEMENT_THEORY = SGP/SGP4

EPOCH          = 2025-11-21T08:01:37.824384
MEAN_MOTION    = 13.77486269
ECCENTRICITY   = .0022191
INCLINATION    = 82.9424
RA_OF_ASC_NODE = 250.6336
ARG_OF_PERICENTER = 342.3670
MEAN_ANOMALY   = 136.0090

EPHEMERIS_TYPE = 0
CLASSIFICATION_TYPE = U
NORAD_CAT_ID   = 21088
ELEMENT_SET_NO = 999
REV_AT_EPOCH   = 74915
BSTAR          = .96536E-4
MEAN_MOTION_DOT = .111E-5
MEAN_MOTION_DDOT = 0

CCSDS_OMM_VERS = 2.0
CREATION_DATE  = 
ORIGINATOR     = 

OBJECT_NAME    = OKEAN-3
OBJECT_ID      = 1991-039A
CENTER_NAME    = EARTH
REF_FRAME      = TEME
TIME_SYSTEM    = UTC
MEAN_ELEMENT_THEORY = SGP/SGP4

EPOCH          = 2025-11-21T09:25:00.336864
MEAN_MOTION    = 15.03910417
ECCENTRICITY   = .0014138
INCLINATION    = 82.5165
RA_OF_ASC_NODE = 81.7039
ARG_OF_PERICENTER = 345.0829
MEAN_ANOMALY   = 14.9978

EPHEMERIS_TYPE = 0
CLASSIFICATION_TYPE = U
NORAD_CAT_ID   = 21397
ELEMENT_SET_NO = 999
REV_AT_EPOCH   = 84875
BSTAR          = .3003E-3
MEAN_MOTION_DOT = .4173E-4
MEAN_MOTION_DDOT = 0

